{"type": "FeatureCollection", "features": [ {"type": "Feature", "properties": {"norad_id": 66835, "name": "STARLINK-35890", "group": "last-30-days", "lat": 16.44801119012622, "lon": -154.6472244477585, "alt_km": 329.2552688364385, "timestamp": "2025-12-12T14:39:16.772938+00:00", "meta": {"OBJECT_NAME": "STARLINK-35890", "OBJECT_ID": "2025-280Q", "EPOCH": "2025-12-12T06:00:00.999648", "MEAN_MOTION": 15.82121703, "ECCENTRICITY": 0.00037956, "INCLINATION": 69.9918, "RA_OF_ASC_NODE": 200.2079, "ARG_OF_PERICENTER": 275.3277, "MEAN_ANOMALY": 210.0075, "EPHEMERIS_TYPE": 0, "CLASSIFICATION_TYPE": "U", "NORAD_CAT_ID": 66835, "ELEMENT_SET_NO": 999, "REV_AT_EPOCH": 282, "BSTAR": -0.010026537, "MEAN_MOTION_DOT": -0.01812628, "MEAN_MOTION_DDOT": 0}, "tle": {"line1": "1 66835U 25280Q   25346.25001157 -.01812628  00000+0 -10027-1 0  9996", "line2": "2 66835  69.9918 200.2079 0003795 275.3277 210.0075 15.82121703  2826"}}, "geometry": {"type": "Point", "coordinates": [-154.6472244477585, 16.44801119012622]}}, {"type": "Feature", "properties": {"norad_id": 66836, "name": "STARLINK-35838", "group": "last-30-days", "lat": 18.354343041081727, "lon": -153.88187863780377, "alt_km": 328.9854197104478, "timestamp": "2025-12-12T14:39:16.772948+00:00", "meta": {"OBJECT_NAME": "STARLINK-35838", "OBJECT_ID": "2025-280R", "EPOCH": "2025-12-12T06:00:00.999648", "MEAN_MOTION": 15.82132321, "ECCENTRICITY": 0.00037548, "INCLINATION": 69.9917, "RA_OF_ASC_NODE": 200.2052, "ARG_OF_PERICENTER": 276.1225, "MEAN_ANOMALY": 211.2446, "EPHEMERIS_TYPE": 0, "CLASSIFICATION_TYPE": "U", "NORAD_CAT_ID": 66836, "ELEMENT_SET_NO": 999, "REV_AT_EPOCH": 282, "BSTAR": -0.010069957, "MEAN_MOTION_DOT": -0.01820282, "MEAN_MOTION_DDOT": 0}, "tle": {"line1": "1 66836U 25280R   25346.25001157 -.01820282  00000+0 -10070-1 0  9990", "line2": "2 66836  69.9917 200.2052 0003754 276.1225 211.2446 15.82132321  2827"}}, "geometry": {"type": "Point", "coordinates": [-153.88187863780377, 18.354343041081727]}}, {"type": "Feature", "properties": {"norad_id": 66837, "name": "STARLINK-35729", "group": "last-30-days", "lat": 20.221290905932026, "lon": -153.1143284928367, "alt_km": 328.66087027275535, "timestamp": "2025-12-12T14:39:16.772957+00:00", "meta": {"OBJECT_NAME": "STARLINK-35729", "OBJECT_ID": "2025-280S", "EPOCH": "2025-12-12T06:00:00.999648", "MEAN_MOTION": 15.82144465, "ECCENTRICITY": 0.00035413, "INCLINATION": 69.9916, "RA_OF_ASC_NODE": 200.2027, "ARG_OF_PERICENTER": 277.2998, "MEAN_ANOMALY": 212.0595, "EPHEMERIS_TYPE": 0, "CLASSIFICATION_TYPE": "U", "NORAD_CAT_ID": 66837, "ELEMENT_SET_NO": 999, "REV_AT_EPOCH": 282, "BSTAR": -0.010106269, "MEAN_MOTION_DOT": -0.01826714, "MEAN_MOTION_DDOT": 0}, "tle": {"line1": "1 66837U 25280S   25346.25001157 -.01826714  00000+0 -10106-1 0  9997", "line2": "2 66837  69.9916 200.2027 0003541 277.2998 212.0595 15.82144465  2828"}}, "geometry": {"type": "Point", "coordinates": [-153.1143284928367, 20.221290905932026]}}, {"type": "Feature", "properties": {"norad_id": 66838, "name": "STARLINK-35886", "group": "last-30-days", "lat": 23.797813290596967, "lon": -151.58513397355242, "alt_km": 328.1718425147037, "timestamp": "2025-12-12T14:39:16.772966+00:00", "meta": {"OBJECT_NAME": "STARLINK-35886", "OBJECT_ID": "2025-280T", "EPOCH": "2025-12-12T06:00:00.999648", "MEAN_MOTION": 15.82184802, "ECCENTRICITY": 0.00035507, "INCLINATION": 69.9915, "RA_OF_ASC_NODE": 200.1981, "ARG_OF_PERICENTER": 276.7648, "MEAN_ANOMALY": 216.3952, "EPHEMERIS_TYPE": 0, "CLASSIFICATION_TYPE": "U", "NORAD_CAT_ID": 66838, "ELEMENT_SET_NO": 999, "REV_AT_EPOCH": 282, "BSTAR": -0.010166667, "MEAN_MOTION_DOT": -0.01839371, "MEAN_MOTION_DDOT": 0}, "tle": {"line1": "1 66838U 25280T   25346.25001157 -.01839371  00000+0 -10167-1 0  9998", "line2": "2 66838  69.9915 200.1981 0003550 276.7648 216.3952 15.82184802  2825"}}, "geometry": {"type": "Point", "coordinates": [-151.58513397355242, 23.797813290596967]}}, {"type": "Feature", "properties": {"norad_id": 66839, "name": "STARLINK-35717", "group": "last-30-days", "lat": 21.94588836431479, "lon": -152.38758004473607, "alt_km": 328.5553751068737, "timestamp": "2025-12-12T14:39:16.772974+00:00", "meta": {"OBJECT_NAME": "STARLINK-35717", "OBJECT_ID": "2025-280U", "EPOCH": "2025-12-12T06:00:00.999648", "MEAN_MOTION": 15.82168787, "ECCENTRICITY": 0.00036782, "INCLINATION": 69.9916, "RA_OF_ASC_NODE": 200.2003, "ARG_OF_PERICENTER": 274.1933, "MEAN_ANOMALY": 216.9882, "EPHEMERIS_TYPE": 0, "CLASSIFICATION_TYPE": "U", "NORAD_CAT_ID": 66839, "ELEMENT_SET_NO": 999, "REV_AT_EPOCH": 282, "BSTAR": -0.010116538, "MEAN_MOTION_DOT": -0.01830345, "MEAN_MOTION_DDOT": 0}, "tle": {"line1": "1 66839U 25280U   25346.25001157 -.01830345  00000+0 -10117-1 0  9996", "line2": "2 66839  69.9916 200.2003 0003678 274.1933 216.9882 15.82168787  2825"}}, "geometry": {"type": "Point", "coordinates": [-152.38758004473607, 21.94588836431479]}}, {"type": "Feature", "properties": {"norad_id": 66840, "name": "STARLINK-35837", "group": "last-30-days", "lat": 25.60760271520327, "lon": -150.77661068448893, "alt_km": 327.9529953220035, "timestamp": "2025-12-12T14:39:16.772983+00:00", "meta": {"OBJECT_NAME": "STARLINK-35837", "OBJECT_ID": "2025-280V", "EPOCH": "2025-12-12T06:00:00.999648", "MEAN_MOTION": 15.8220127, "ECCENTRICITY": 0.00035703, "INCLINATION": 69.9917, "RA_OF_ASC_NODE": 200.1961, "ARG_OF_PERICENTER": 276.0554, "MEAN_ANOMALY": 219.0389, "EPHEMERIS_TYPE": 0, "CLASSIFICATION_TYPE": "U", "NORAD_CAT_ID": 66840, "ELEMENT_SET_NO": 999, "REV_AT_EPOCH": 282, "BSTAR": -0.010196683, "MEAN_MOTION_DOT": -0.01845413, "MEAN_MOTION_DDOT": 0}, "tle": {"line1": "1 66840U 25280V   25346.25001157 -.01845413  00000+0 -10197-1 0  9998", "line2": "2 66840  69.9917 200.1961 0003570 276.0554 219.0389 15.82201270  2822"}}, "geometry": {"type": "Point", "coordinates": [-150.77661068448893, 25.60760271520327]}}, {"type": "Feature", "properties": {"norad_id": 66841, "name": "STARLINK-35715", "group": "last-30-days", "lat": 27.45761196062465, "lon": -149.92271948459862, "alt_km": 327.77973400033625, "timestamp": "2025-12-12T14:39:16.772992+00:00", "meta": {"OBJECT_NAME": "STARLINK-35715", "OBJECT_ID": "2025-280W", "EPOCH": "2025-12-12T06:00:00.999648", "MEAN_MOTION": 15.82213658, "ECCENTRICITY": 0.00036399, "INCLINATION": 69.9916, "RA_OF_ASC_NODE": 200.1933, "ARG_OF_PERICENTER": 274.6645, "MEAN_ANOMALY": 222.4173, "EPHEMERIS_TYPE": 0, "CLASSIFICATION_TYPE": "U", "NORAD_CAT_ID": 66841, "ELEMENT_SET_NO": 999, "REV_AT_EPOCH": 282, "BSTAR": -0.010225216, "MEAN_MOTION_DOT": -0.01850971, "MEAN_MOTION_DDOT": 0}, "tle": {"line1": "1 66841U 25280W   25346.25001157 -.01850971  00000+0 -10225-1 0  9996", "line2": "2 66841  69.9916 200.1933 0003639 274.6645 222.4173 15.82213658  2824"}}, "geometry": {"type": "Point", "coordinates": [-149.92271948459862, 27.45761196062465]}}, {"type": "Feature", "properties": {"norad_id": 66842, "name": "STARLINK-35769", "group": "last-30-days", "lat": 29.1778327022908, "lon": -149.09969601240394, "alt_km": 327.5384111989315, "timestamp": "2025-12-12T14:39:16.773001+00:00", "meta": {"OBJECT_NAME": "STARLINK-35769", "OBJECT_ID": "2025-280X", "EPOCH": "2025-12-12T06:00:00.999648", "MEAN_MOTION": 15.82237259, "ECCENTRICITY": 0.00037475, "INCLINATION": 69.9916, "RA_OF_ASC_NODE": 200.1913, "ARG_OF_PERICENTER": 274.7997, "MEAN_ANOMALY": 224.118, "EPHEMERIS_TYPE": 0, "CLASSIFICATION_TYPE": "U", "NORAD_CAT_ID": 66842, "ELEMENT_SET_NO": 999, "REV_AT_EPOCH": 282, "BSTAR": -0.010235648, "MEAN_MOTION_DOT": -0.01854563, "MEAN_MOTION_DDOT": 0}, "tle": {"line1": "1 66842U 25280X   25346.25001157 -.01854563  00000+0 -10236-1 0  9990", "line2": "2 66842  69.9916 200.1913 0003747 274.7997 224.1180 15.82237259  2824"}}, "geometry": {"type": "Point", "coordinates": [-149.09969601240394, 29.1778327022908]}}, {"type": "Feature", "properties": {"norad_id": 66843, "name": "STARLINK-35997", "group": "last-30-days", "lat": 32.78081926525728, "lon": -147.272217843622, "alt_km": 326.9033774589616, "timestamp": "2025-12-12T14:39:16.773010+00:00", "meta": {"OBJECT_NAME": "STARLINK-35997", "OBJECT_ID": "2025-280Y", "EPOCH": "2025-12-12T06:00:00.999648", "MEAN_MOTION": 15.82270602, "ECCENTRICITY": 0.00036149, "INCLINATION": 69.991, "RA_OF_ASC_NODE": 200.1864, "ARG_OF_PERICENTER": 276.894, "MEAN_ANOMALY": 225.9148, "EPHEMERIS_TYPE": 0, "CLASSIFICATION_TYPE": "U", "NORAD_CAT_ID": 66843, "ELEMENT_SET_NO": 999, "REV_AT_EPOCH": 282, "BSTAR": -0.010295975, "MEAN_MOTION_DOT": -0.01866539, "MEAN_MOTION_DDOT": 0}, "tle": {"line1": "1 66843U 25280Y   25346.25001157 -.01866539  00000+0 -10296-1 0  9993", "line2": "2 66843  69.9910 200.1864 0003614 276.8940 225.9148 15.82270602  2820"}}, "geometry": {"type": "Point", "coordinates": [-147.272217843622, 32.78081926525728]}}, {"type": "Feature", "properties": {"norad_id": 66844, "name": "STARLINK-36073", "group": "last-30-days", "lat": 31.106329971788362, "lon": -148.14042778372956, "alt_km": 327.1481915802933, "timestamp": "2025-12-12T14:39:16.773025+00:00", "meta": {"OBJECT_NAME": "STARLINK-36073", "OBJECT_ID": "2025-280Z", "EPOCH": "2025-12-12T06:00:00.999648", "MEAN_MOTION": 15.82248367, "ECCENTRICITY": 0.00036327, "INCLINATION": 69.9913, "RA_OF_ASC_NODE": 200.1887, "ARG_OF_PERICENTER": 277.7697, "MEAN_ANOMALY": 223.2401, "EPHEMERIS_TYPE": 0, "CLASSIFICATION_TYPE": "U", "NORAD_CAT_ID": 66844, "ELEMENT_SET_NO": 999, "REV_AT_EPOCH": 282, "BSTAR": -0.010318422, "MEAN_MOTION_DOT": -0.01868408, "MEAN_MOTION_DDOT": 0}, "tle": {"line1": "1 66844U 25280Z   25346.25001157 -.01868408  00000+0 -10318-1 0  9996", "line2": "2 66844  69.9913 200.1887 0003632 277.7697 223.2401 15.82248367  2824"}}, "geometry": {"type": "Point", "coordinates": [-148.14042778372956, 31.106329971788362]}}]}